1 40069U 14037A   22022.53787031 -.00000002  00000-0  18286-4 0  9998
2 40069  98.4432  46.9170 0006437  35.8520 324.3091 14.20695723391140